NORAD_CAT_ID,OBJECT_NAME,OBJECT_TYPE,EPOCH,MEAN_MOTION,ECCENTRICITY,INCLINATION,RA_OF_ASC_NODE,ARG_OF_PERICENTER,MEAN_ANOMALY,BSTAR,MEAN_MOTION_DOT,MEAN_MOTION_DDOT,TLE_LINE0,TLE_LINE1,TLE_LINE2,SEMIMAJOR_AXIS,PERIOD,APOGEE,PERIGEE,DECAYED
52552.0,STARLINK-3966,PAYLOAD,2023-11-08 09:51:58,15.08856523,0.000154,53.2178,355.16,109.3409,250.775,0.00072463,0.00011268,0.0,0 STARLINK-3966,1 52552U 22051V   23312.41109433  .00011268  00000-0  72463-3 0  9998,2 52552  53.2178 355.1600 0001540 109.3409 250.7750 15.08856523 82855,6917.83,95.437,540.76,538.63,0.0
52552.0,STARLINK-3966,PAYLOAD,2023-11-08 19:24:17,15.08847429,0.0001751,53.2183,353.379,116.2498,243.8674,0.00047973,7.357e-05,0.0,0 STARLINK-3966,1 52552U 22051V   23312.80853498  .00007357  00000-0  47973-3 0  9990,2 52552  53.2183 353.3790 0001751 116.2498 243.8674 15.08847429 82910,6917.858,95.437,540.934,538.511,0.0
52552.0,STARLINK-3966,PAYLOAD,2023-11-09 03:21:13,15.08841286,0.0001458,53.2176,351.893,102.0571,258.0585,0.00049144,7.542e-05,0.0,0 STARLINK-3966,1 52552U 22051V   23313.13973826  .00007542  00000-0  49144-3 0  9993,2 52552  53.2176 351.8930 0001458 102.0571 258.0585 15.08841286 82969,6917.876,95.437,540.75,538.733,0.0
52552.0,STARLINK-3966,PAYLOAD,2023-11-09 08:07:22,15.08847127,0.0001564,53.2175,351.0008,101.0461,259.0707,0.00046253,7.082e-05,0.0,0 STARLINK-3966,1 52552U 22051V   23313.33845456  .00007082  00000-0  46253-3 0  9999,2 52552  53.2175 351.0008 0001564 101.0461 259.0707 15.08847127 82924,6917.859,95.437,540.806,538.642,0.0
52552.0,STARLINK-3966,PAYLOAD,2023-11-09 19:15:03,15.08851312,0.0001469,53.2179,348.9216,104.1521,255.9635,0.00018776,2.702e-05,0.0,0 STARLINK-3966,1 52552U 22051V   23313.80212800  .00002702  00000-0  18776-3 0  9995,2 52552  53.2179 348.9216 0001469 104.1521 255.9635 15.08851312 82992,6917.846,95.437,540.727,538.695,0.0
52552.0,STARLINK-3966,PAYLOAD,2023-11-10 09:33:32,15.08844687,0.0001626,53.218,346.2433,108.1622,251.9547,-0.00021921,-3.776e-05,0.0,0 STARLINK-3966,1 52552U 22051V   23314.39828798 -.00003776  00000-0 -21921-3 0  9999,2 52552  53.2180 346.2433 0001626 108.1622 251.9547 15.08844687 83151,6917.866,95.437,540.856,538.606,0.0
52552.0,STARLINK-3966,PAYLOAD,2023-11-10 19:05:50,15.08841811,0.0001602,53.2176,344.4583,106.8929,253.2239,-7.801e-05,-1.529e-05,0.0,0 STARLINK-3966,1 52552U 22051V   23314.79572910 -.00001529  00000-0 -78010-4 0  9991,2 52552  53.2176 344.4583 0001602 106.8929 253.2239 15.08841811 83149,6917.875,95.437,540.848,538.632,0.0
52552.0,STARLINK-3966,PAYLOAD,2023-11-11 10:59:41,15.08856261,0.0002082,53.2181,341.4858,113.6383,246.4828,-0.0002022,-3.506e-05,0.0,0 STARLINK-3966,1 52552U 22051V   23315.45812111 -.00003506  00000-0 -20220-3 0  9991,2 52552  53.2181 341.4858 0002082 113.6383 246.4828 15.08856261 83312,6917.831,95.437,541.136,538.255,0.0
52552.0,STARLINK-3966,PAYLOAD,2023-11-11 18:56:38,15.08844427,0.0001794,53.2176,339.9937,81.9837,278.1358,6.3439e-05,7.22e-06,0.0,0 STARLINK-3966,1 52552U 22051V   23315.78932887  .00000722  00000-0  63439-4 0  9995,2 52552  53.2176 339.9937 0001794  81.9837 278.1358 15.08844427 83362,6917.867,95.437,540.973,538.491,0.0
52552.0,STARLINK-3966,PAYLOAD,2023-11-12 01:18:10,15.08837061,0.0001787,53.218,338.8076,85.6467,274.473,0.00015629,2.2e-05,0.0,0 STARLINK-3966,1 52552U 22051V   23316.05429369  .00002200  00000-0  15629-3 0  9992,2 52552  53.2180 338.8076 0001787  85.6467 274.4730 15.08837061 83405,6917.889,95.438,540.991,538.518,0.0
52552.0,STARLINK-3966,PAYLOAD,2023-11-12 10:50:29,15.08843509,0.0001549,53.2174,337.0215,88.9441,271.1729,0.00013282,1.827e-05,0.0,0 STARLINK-3966,1 52552U 22051V   23316.45173145  .00001827  00000-0  13282-3 0  9991,2 52552  53.2174 337.0215 0001549  88.9441 271.1729 15.08843509 83392,6917.87,95.437,540.806,538.663,0.0
52552.0,STARLINK-3966,PAYLOAD,2023-11-12 18:47:25,15.08843904,0.0001537,53.2172,335.535,91.0478,269.069,0.000166,2.355e-05,0.0,0 STARLINK-3966,1 52552U 22051V   23316.78293071  .00002355  00000-0  16600-3 0  9992,2 52552  53.2172 335.5350 0001537  91.0478 269.0690 15.08843904 83443,6917.868,95.437,540.797,538.67,0.0
52552.0,STARLINK-3966,PAYLOAD,2023-11-13 07:30:29,15.08855271,0.0001486,53.2159,333.1551,94.5843,265.5319,0.00022048,3.224e-05,0.0,0 STARLINK-3966,1 52552U 22051V   23317.31284375  .00003224  00000-0  22048-3 0  9998,2 52552  53.2159 333.1551 0001486  94.5843 265.5319 15.08855271 83597,6917.834,95.437,540.727,538.671,0.0
52552.0,STARLINK-3966,PAYLOAD,2023-11-13 18:38:11,15.08848044,0.0001612,53.2175,331.0752,79.2064,280.9109,0.00013864,1.92e-05,0.0,0 STARLINK-3966,1 52552U 22051V   23317.77652690  .00001920  00000-0  13864-3 0  9994,2 52552  53.2175 331.0752 0001612  79.2064 280.9109 15.08848044 83667,6917.856,95.437,540.836,538.606,0.0
52552.0,STARLINK-3966,PAYLOAD,2023-11-14 00:59:44,15.08841187,0.0001603,53.2159,329.884,91.1224,268.9952,0.00013179,1.81e-05,0.0,0 STARLINK-3966,1 52552U 22051V   23318.04148998  .00001810  00000-0  13179-3 0  9993,2 52552  53.2159 329.8840 0001603  91.1224 268.9952 15.08841187 83701,6917.877,95.437,540.851,538.633,0.0
52552.0,STARLINK-3966,PAYLOAD,2023-11-14 07:21:17,15.08839051,0.0001605,53.2165,328.6951,88.2101,271.9075,8.3955e-05,1.048e-05,0.0,0 STARLINK-3966,1 52552U 22051V   23318.30645135  .00001048  00000-0  83955-4 0  9990,2 52552  53.2165 328.6951 0001605  88.2101 271.9075 15.08839051 83674,6917.883,95.438,540.859,538.638,0.0
52552.0,STARLINK-3966,PAYLOAD,2023-11-15 04:01:18,15.08838135,0.0001591,53.216,324.8291,86.3464,273.771,3.4935e-07,-2.82e-06,0.0,0 STARLINK-3966,1 52552U 22051V   23319.16757269 -.00000282  00000-0  34935-6 0  9993,2 52552  53.2160 324.8291 0001591  86.3464 273.7710 15.08838135 83879,6917.886,95.438,540.852,538.65,0.0
52552.0,STARLINK-3966,PAYLOAD,2023-11-15 10:22:50,15.08841541,0.0001542,53.2162,323.6389,88.6385,271.4784,1.9696e-05,2.5e-07,0.0,0 STARLINK-3966,1 52552U 22051V   23319.43253091  .00000025  00000-0  19696-4 0  9996,2 52552  53.2162 323.6389 0001542  88.6385 271.4784 15.08841541 83847,6917.876,95.437,540.807,538.674,0.0
52552.0,STARLINK-3966,PAYLOAD,2023-11-16 05:27:28,15.08835774,0.0001571,53.2167,320.0696,88.8928,271.2244,0.00011437,1.532e-05,0.0,0 STARLINK-3966,1 52552U 22051V   23320.22741605  .00001532  00000-0  11437-3 0  9996,2 52552  53.2167 320.0696 0001571  88.8928 271.2244 15.08835774 84033,6917.893,95.438,540.845,538.672,0.0
52552.0,STARLINK-3966,PAYLOAD,2023-11-16 16:35:10,15.08837634,0.0001598,53.217,317.9869,90.6459,269.4717,0.00010952,1.455e-05,0.0,0 STARLINK-3966,1 52552U 22051V   23320.69109569  .00001455  00000-0  10952-3 0  9999,2 52552  53.2170 317.9869 0001598  90.6459 269.4717 15.08837634 84034,6917.888,95.438,540.858,538.647,0.0
52552.0,STARLINK-3966,PAYLOAD,2023-11-17 05:18:16,15.08836222,0.0001651,53.2171,315.6087,89.0508,271.0673,9.9378e-05,1.294e-05,0.0,0 STARLINK-3966,1 52552U 22051V   23321.22101904  .00001294  00000-0  99378-4 0  9995,2 52552  53.2171 315.6087 0001651  89.0508 271.0673 15.08836222 84110,6917.892,95.438,540.899,538.615,0.0
52552.0,STARLINK-3966,PAYLOAD,2023-11-17 16:25:57,15.08838492,0.00018,53.2184,313.5269,86.2701,273.8497,0.00011372,1.522e-05,0.0,0 STARLINK-3966,1 52552U 22051V   23321.68469853  .00001522  00000-0  11372-3 0  9996,2 52552  53.2184 313.5269 0001800  86.2701 273.8497 15.08838492 84253,6917.885,95.438,540.995,538.505,0.0
52552.0,STARLINK-3966,PAYLOAD,2023-11-18 08:19:49,15.08837773,0.0001723,53.2181,310.5572,96.4076,263.7112,7.4496e-05,8.98e-06,0.0,0 STARLINK-3966,1 52552U 22051V   23322.34710200  .00000898  00000-0  74496-4 0  9997,2 52552  53.2181 310.5572 0001723  96.4076 263.7112 15.08837773 84282,6917.887,95.438,540.944,538.56,0.0
52552.0,STARLINK-3966,PAYLOAD,2023-11-18 16:16:45,15.08842216,0.0001856,53.2183,309.0709,116.8804,243.2378,-2.207e-05,-6.39e-06,0.0,0 STARLINK-3966,1 52552U 22051V   23322.67830021 -.00000639  00000-0 -22070-4 0  9993,2 52552  53.2183 309.0709 0001856 116.8804 243.2378 15.08842216 84333,6917.874,95.437,541.023,538.455,0.0
52552.0,STARLINK-3966,PAYLOAD,2023-11-19 03:24:25,15.0887465,0.0001893,53.218,306.9889,89.5044,270.6165,-0.0004069,-6.764e-05,0.0,0 STARLINK-3966,1 52552U 22051V   23323.14196731 -.00006764  00000-0 -40690-3 0  9991,2 52552  53.2180 306.9889 0001893  89.5044 270.6165 15.08874650 84478,6917.774,95.435,540.949,538.33,0.0
52552.0,STARLINK-3966,PAYLOAD,2023-11-19 08:10:36,15.08848683,0.0001896,53.2176,306.0962,104.1959,255.9244,8.6381e-05,1.087e-05,0.0,0 STARLINK-3966,1 52552U 22051V   23323.34069541  .00001087  00000-0  86381-4 0  9990,2 52552  53.2176 306.0962 0001896 104.1959 255.9244 15.08848683 84503,6917.854,95.437,541.03,538.407,0.0
52552.0,STARLINK-3966,PAYLOAD,2023-11-19 22:29:04,15.0883886,0.0001704,53.2178,303.4205,94.6176,265.5011,0.00010764,1.425e-05,0.0,0 STARLINK-3966,1 52552U 22051V   23323.93686077  .00001425  00000-0  10764-3 0  9991,2 52552  53.2178 303.4205 0001704  94.6176 265.5011 15.08838860 84525,6917.884,95.438,540.928,538.57,0.0
52552.0,STARLINK-3966,PAYLOAD,2023-11-20 03:15:14,15.08840367,0.0001772,53.2182,302.5268,90.2016,269.918,0.00011177,1.491e-05,0.0,0 STARLINK-3966,1 52552U 22051V   23324.13558044  .00001491  00000-0  11177-3 0  9998,2 52552  53.2182 302.5268 0001772  90.2016 269.9180 15.08840367 84620,6917.879,95.438,540.97,538.518,0.0
52552.0,STARLINK-3966,PAYLOAD,2023-11-20 08:01:23,15.08848663,0.0001674,53.218,301.6345,91.8956,268.2228,0.00012018,1.626e-05,0.0,0 STARLINK-3966,1 52552U 22051V   23324.33429516  .00001626  00000-0  12018-3 0  9996,2 52552  53.2180 301.6345 0001674  91.8956 268.2228 15.08848663 84650,6917.854,95.437,540.877,538.561,0.0
52552.0,STARLINK-3966,PAYLOAD,2023-11-20 15:58:19,15.08842737,0.0001585,53.2175,300.1476,92.074,268.0434,0.0001254,1.708e-05,0.0,0 STARLINK-3966,1 52552U 22051V   23324.66549839  .00001708  00000-0  12540-3 0  9994,2 52552  53.2175 300.1476 0001585  92.0740 268.0434 15.08842737 84707,6917.872,95.437,540.834,538.641,0.0
